{
  "type": "FeatureCollection",
  "features": [
    {
      "type": "Feature",
      "properties": {
        "norad_id": 66509,
        "name": "STARLINK-35598",
        "group": "last-30-days",
        "lat": 2.1765039823284877,
        "lon": -39.053250564049186,
        "alt_km": 414.6488119941523,
        "timestamp": "2025-12-09T14:52:24.941441+00:00",
        "meta_object_name": "STARLINK-35598",
        "meta_object_id": "2025-263AA",
        "meta_epoch": "2025-12-09T06:00:02.000160",
        "meta_mean_motion": 15.50636197,
        "meta_eccentricity": 0.00015017,
        "meta_inclination": 43.0006,
        "meta_ra_of_asc_node": 145.4472,
        "meta_arg_of_pericenter": 264.5163,
        "meta_mean_anomaly": 5.9851,
        "meta_ephemeris_type": 0,
        "meta_classification_type": "U",
        "meta_norad_cat_id": 66509,
        "meta_element_set_no": 999,
        "meta_rev_at_epoch": 507,
        "meta_bstar": -0.0022468265,
        "meta_mean_motion_dot": -0.00130249,
        "meta_mean_motion_ddot": 0,
        "tle_line1": "1 66509U 25263AA  25343.25002315 -.00130249  00000+0 -22468-2 0  9993",
        "tle_line2": "2 66509  43.0006 145.4472 0001501 264.5163   5.9851 15.50636197  5075"
      },
      "geometry": {
        "type": "Point",
        "coordinates": [
          -39.053250564049186,
          2.1765039823284877
        ]
      }
    },
    {
      "type": "Feature",
      "properties": {
        "norad_id": 66510,
        "name": "STARLINK-35600",
        "group": "last-30-days",
        "lat": 6.082122866505292,
        "lon": -43.26693479536857,
        "alt_km": 414.15254991861275,
        "timestamp": "2025-12-09T14:52:24.941451+00:00",
        "meta_object_name": "STARLINK-35600",
        "meta_object_id": "2025-263AB",
        "meta_epoch": "2025-12-09T06:00:02.000160",
        "meta_mean_motion": 15.50635893,
        "meta_eccentricity": 0.00014709,
        "meta_inclination": 43.0006,
        "meta_ra_of_asc_node": 145.4619,
        "meta_arg_of_pericenter": 260.8023,
        "meta_mean_anomaly": 3.9549,
        "meta_ephemeris_type": 0,
        "meta_classification_type": "U",
        "meta_norad_cat_id": 66510,
        "meta_element_set_no": 999,
        "meta_rev_at_epoch": 507,
        "meta_bstar": -0.0023052544,
        "meta_mean_motion_dot": -0.00133569,
        "meta_mean_motion_ddot": 0,
        "tle_line1": "1 66510U 25263AB  25343.25002315 -.00133569  00000+0 -23053-2 0  9994",
        "tle_line2": "2 66510  43.0006 145.4619 0001470 260.8023   3.9549 15.50635893  5073"
      },
      "geometry": {
        "type": "Point",
        "coordinates": [
          -43.26693479536857,
          6.082122866505292
        ]
      }
    },
    {
      "type": "Feature",
      "properties": {
        "norad_id": 66511,
        "name": "STARLINK-35444",
        "group": "last-30-days",
        "lat": 3.4787758618120552,
        "lon": -40.450252644308115,
        "alt_km": 414.6593054828845,
        "timestamp": "2025-12-09T14:52:24.941461+00:00",
        "meta_object_name": "STARLINK-35444",
        "meta_object_id": "2025-263AC",
        "meta_epoch": "2025-12-09T06:00:02.000160",
        "meta_mean_motion": 15.50665864,
        "meta_eccentricity": 0.00015038,
        "meta_inclination": 43.0006,
        "meta_ra_of_asc_node": 145.4532,
        "meta_arg_of_pericenter": 271.7977,
        "meta_mean_anomaly": 356.7753,
        "meta_ephemeris_type": 0,
        "meta_classification_type": "U",
        "meta_norad_cat_id": 66511,
        "meta_element_set_no": 999,
        "meta_rev_at_epoch": 507,
        "meta_bstar": -0.0030706021,
        "meta_mean_motion_dot": -0.00177016,
        "meta_mean_motion_ddot": 0,
        "tle_line1": "1 66511U 25263AC  25343.25002315 -.00177016  00000+0 -30706-2 0  9993",
        "tle_line2": "2 66511  43.0006 145.4532 0001503 271.7977 356.7753 15.50665864  5071"
      },
      "geometry": {
        "type": "Point",
        "coordinates": [
          -40.450252644308115,
          3.4787758618120552
        ]
      }
    },
    {
      "type": "Feature",
      "properties": {
        "norad_id": 66512,
        "name": "STARLINK-35366",
        "group": "last-30-days",
        "lat": 0.8678343884841898,
        "lon": -37.650926465955486,
        "alt_km": 414.9083221592173,
        "timestamp": "2025-12-09T14:52:24.941475+00:00",
        "meta_object_name": "STARLINK-35366",
        "meta_object_id": "2025-263AD",
        "meta_epoch": "2025-12-09T06:00:02.000160",
        "meta_mean_motion": 15.5063324,
        "meta_eccentricity": 0.00015293,
        "meta_inclination": 43.0006,
        "meta_ra_of_asc_node": 145.4435,
        "meta_arg_of_pericenter": 270.2864,
        "meta_mean_anomaly": 2.1404,
        "meta_ephemeris_type": 0,
        "meta_classification_type": "U",
        "meta_norad_cat_id": 66512,
        "meta_element_set_no": 999,
        "meta_rev_at_epoch": 507,
        "meta_bstar": -0.0022845657,
        "meta_mean_motion_dot": -0.00132382,
        "meta_mean_motion_ddot": 0,
        "tle_line1": "1 66512U 25263AD  25343.25002315 -.00132382  00000+0 -22846-2 0  9997",
        "tle_line2": "2 66512  43.0006 145.4435 0001529 270.2864   2.1404 15.50633240  5079"
      },
      "geometry": {
        "type": "Point",
        "coordinates": [
          -37.650926465955486,
          0.8678343884841898
        ]
      }
    },
    {
      "type": "Feature",
      "properties": {
        "norad_id": 66513,
        "name": "STARLINK-35692",
        "group": "last-30-days",
        "lat": 4.783109833172801,
        "lon": -41.8574654477884,
        "alt_km": 414.3144743645935,
        "timestamp": "2025-12-09T14:52:24.941485+00:00",
        "meta_object_name": "STARLINK-35692",
        "meta_object_id": "2025-263AE",
        "meta_epoch": "2025-12-09T06:00:02.000160",
        "meta_mean_motion": 15.50632716,
        "meta_eccentricity": 0.00015121,
        "meta_inclination": 43.0005,
        "meta_ra_of_asc_node": 145.4573,
        "meta_arg_of_pericenter": 261.0193,
        "meta_mean_anomaly": 5.6574,
        "meta_ephemeris_type": 0,
        "meta_classification_type": "U",
        "meta_norad_cat_id": 66513,
        "meta_element_set_no": 999,
        "meta_rev_at_epoch": 507,
        "meta_bstar": -0.0023029313,
        "meta_mean_motion_dot": -0.00133423,
        "meta_mean_motion_ddot": 0,
        "tle_line1": "1 66513U 25263AE  25343.25002315 -.00133423  00000+0 -23029-2 0  9999",
        "tle_line2": "2 66513  43.0005 145.4573 0001512 261.0193   5.6574 15.50632716  5070"
      },
      "geometry": {
        "type": "Point",
        "coordinates": [
          -41.8574654477884,
          4.783109833172801
        ]
      }
    },
    {
      "type": "Feature",
      "properties": {
        "norad_id": 66514,
        "name": "SENTINEL-6B",
        "group": "last-30-days",
        "lat": 62.10175177598781,
        "lon": -68.20752774337868,
        "alt_km": 1333.893086942563,
        "timestamp": "2025-12-09T14:52:24.941498+00:00",
        "meta_object_name": "SENTINEL-6B",
        "meta_object_id": "2025-264A",
        "meta_epoch": "2025-12-08T23:22:28.384896",
        "meta_mean_motion": 12.84031992,
        "meta_eccentricity": 0.00210406,
        "meta_inclination": 66.0385,
        "meta_ra_of_asc_node": 170.2707,
        "meta_arg_of_pericenter": 268.23,
        "meta_mean_anomaly": 91.6307,
        "meta_ephemeris_type": 0,
        "meta_classification_type": "U",
        "meta_norad_cat_id": 66514,
        "meta_element_set_no": 999,
        "meta_rev_at_epoch": 280,
        "meta_bstar": 0.000106025,
        "meta_mean_motion_dot": -3.6e-07,
        "meta_mean_motion_ddot": 0,
        "tle_line1": "1 66514U 25264A   25342.97393964 -.00000036  00000+0  10602-3 0  9998",
        "tle_line2": "2 66514  66.0385 170.2707 0021040 268.2300  91.6307 12.84031992  2809"
      },
      "geometry": {
        "type": "Point",
        "coordinates": [
          -68.20752774337868,
          62.10175177598781
        ]
      }
    },
    {
      "type": "Feature",
      "properties": {
        "norad_id": 66516,
        "name": "STARLINK-35924",
        "group": "last-30-days",
        "lat": -14.060261394733528,
        "lon": 56.67839171874396,
        "alt_km": 412.24299653989874,
        "timestamp": "2025-12-09T14:52:24.941509+00:00",
        "meta_object_name": "STARLINK-35924",
        "meta_object_id": "2025-265A",
        "meta_epoch": "2025-12-09T06:00:02.000160",
        "meta_mean_motion": 15.53426323,
        "meta_eccentricity": 0.00016967,
        "meta_inclination": 43.0002,
        "meta_ra_of_asc_node": 74.4387,
        "meta_arg_of_pericenter": 266.0388,
        "meta_mean_anomaly": 164.1309,
        "meta_ephemeris_type": 0,
        "meta_classification_type": "U",
        "meta_norad_cat_id": 66516,
        "meta_element_set_no": 999,
        "meta_rev_at_epoch": 441,
        "meta_bstar": -0.032187241,
        "meta_mean_motion_dot": -0.01851169,
        "meta_mean_motion_ddot": 0,
        "tle_line1": "1 66516U 25265A   25343.25002315 -.01851169  00000+0 -32187-1 0  9993",
        "tle_line2": "2 66516  43.0002  74.4387 0001696 266.0388 164.1309 15.53426323  4410"
      },
      "geometry": {
        "type": "Point",
        "coordinates": [
          56.67839171874396,
          -14.060261394733528
        ]
      }
    }
  ]
}